NORAD_CAT_ID,OBJECT_NAME,OBJECT_TYPE,EPOCH,MEAN_MOTION,ECCENTRICITY,INCLINATION,RA_OF_ASC_NODE,ARG_OF_PERICENTER,MEAN_ANOMALY,BSTAR,MEAN_MOTION_DOT,MEAN_MOTION_DDOT,TLE_LINE0,TLE_LINE1,TLE_LINE2,SEMIMAJOR_AXIS,PERIOD,APOGEE,PERIGEE,DECAYED
55932.0,STARLINK-5848,PAYLOAD,2024-02-02 10:58:27,14.98330031,0.0002846,70.0,36.2139,267.9029,92.1804,3.6773e-05,3.46e-06,0.0,0 STARLINK-5848,1 55932U 23037U   24033.45726315  .00000346  00000-0  36773-4 0  9997,2 55932  70.0000  36.2139 0002846 267.9029  92.1804 14.98330031 50047,6950.193,96.107,574.036,570.08,0.0
55932.0,STARLINK-5848,PAYLOAD,2024-02-03 09:24:20,14.98328235,0.0002877,69.9999,33.8571,267.692,92.391,-1.0276e-05,-2.16e-06,0.0,0 STARLINK-5848,1 55932U 23037U   24034.39190585 -.00000216  00000-0 -10276-4 0  9993,2 55932  69.9999  33.8571 0002877 267.6920  92.3910 14.98328235 49844,6950.198,96.107,574.063,570.064,0.0
55932.0,STARLINK-5848,PAYLOAD,2024-02-04 03:01:49,14.98330219,0.0002891,70.0,32.0053,267.749,92.3338,-1.2849e-05,-2.46e-06,0.0,0 STARLINK-5848,1 55932U 23037U   24035.12626464 -.00000246  00000-0 -12849-4 0  9996,2 55932  70.0000  32.0053 0002891 267.7490  92.3338 14.98330219 50295,6950.192,96.107,574.067,570.048,0.0
55932.0,STARLINK-5848,PAYLOAD,2024-02-04 09:26:21,14.98332038,0.0002865,70.0001,31.3322,267.3615,92.7216,1.0334e-05,3e-07,0.0,0 STARLINK-5848,1 55932U 23037U   24035.39330269  .00000030  00000-0  10334-4 0  9996,2 55932  70.0001  31.3322 0002865 267.3615  92.7216 14.98332038 49998,6950.187,96.107,574.043,570.06,0.0
55932.0,STARLINK-5848,PAYLOAD,2024-02-04 22:15:25,14.98329059,0.000289,70.0001,29.9859,267.981,92.1018,1.5697e-05,9.4e-07,0.0,0 STARLINK-5848,1 55932U 23037U   24035.92738406  .00000094  00000-0  15697-4 0  9997,2 55932  70.0001  29.9859 0002890 267.9810  92.1018 14.98329059 50071,6950.196,96.107,574.069,570.052,0.0
55932.0,STARLINK-5848,PAYLOAD,2024-02-05 04:39:58,14.98327586,0.0002892,70.0002,29.3122,268.0899,91.9929,4.4428e-06,-4e-07,0.0,0 STARLINK-5848,1 55932U 23037U   24036.19442548 -.00000040  00000-0  44428-5 0  9993,2 55932  70.0002  29.3122 0002892 268.0899  91.9929 14.98327586 50453,6950.2,96.107,574.075,570.055,0.0
55932.0,STARLINK-5848,PAYLOAD,2024-02-05 09:28:22,14.98329991,0.0002911,70.0003,28.8078,268.8159,91.2667,2.7227e-05,2.32e-06,0.0,0 STARLINK-5848,1 55932U 23037U   24036.39470342  .00000232  00000-0  27227-4 0  9997,2 55932  70.0003  28.8078 0002911 268.8159  91.2667 14.98329991 50147,6950.193,96.107,574.081,570.035,0.0
55932.0,STARLINK-5848,PAYLOAD,2024-02-06 09:30:22,14.98335151,0.0002855,70.0007,26.2835,267.3935,92.6897,3.3065e-05,3.02e-06,0.0,0 STARLINK-5848,1 55932U 23037U   24037.39609875  .00000302  00000-0  33065-4 0  9998,2 55932  70.0007  26.2835 0002855 267.3935  92.6897 14.98335151 50636,6950.177,96.107,574.026,570.058,0.0
55932.0,STARLINK-5848,PAYLOAD,2024-02-07 09:32:23,14.98333987,0.0002765,70.001,23.7592,265.9681,94.1162,5.3582e-05,5.46e-06,0.0,0 STARLINK-5848,1 55932U 23037U   24038.39749666  .00000546  00000-0  53582-4 0  9998,2 55932  70.0010  23.7592 0002765 265.9681  94.1162 14.98333987 50787,6950.181,96.107,573.967,570.124,0.0
55932.0,STARLINK-5848,PAYLOAD,2024-02-07 15:56:55,14.98350311,0.0002869,70.0011,23.0852,267.796,92.287,-0.00038769,-4.718e-05,0.0,0 STARLINK-5848,1 55932U 23037U   24038.66453534 -.00004718  00000-0 -38769-3 0  9990,2 55932  70.0011  23.0852 0002869 267.7960  92.2870 14.98350311 50487,6950.13,96.106,573.989,570.001,0.0
55932.0,STARLINK-5848,PAYLOAD,2024-02-08 04:46:01,14.98326246,0.0002626,70.001,21.738,261.3503,98.7359,-4.8822e-05,-6.75e-06,0.0,0 STARLINK-5848,1 55932U 23037U   24039.19862357 -.00000675  00000-0 -48822-4 0  9996,2 55932  70.0010  21.7380 0002626 261.3503  98.7359 14.98326246 50901,6950.204,96.107,573.895,570.244,0.0
55932.0,STARLINK-5848,PAYLOAD,2024-02-08 09:34:25,14.98326776,0.0002698,70.0012,21.2332,263.9218,96.1634,-7.0816e-05,-9.38e-06,0.0,0 STARLINK-5848,1 55932U 23037U   24039.39890432 -.00000938  00000-0 -70816-4 0  9993,2 55932  70.0012  21.2332 0002698 263.9218  96.1634 14.98326776 50596,6950.203,96.107,573.943,570.193,0.0
55932.0,STARLINK-5848,PAYLOAD,2024-02-09 08:00:18,14.98324279,0.0002846,70.0009,18.8759,259.2096,100.8743,-4.4797e-05,-6.27e-06,0.0,0 STARLINK-5848,1 55932U 23037U   24040.33354543 -.00000627  00000-0 -44797-4 0  9991,2 55932  70.0009  18.8759 0002846 259.2096 100.8743 14.98324279 51078,6950.211,96.107,574.054,570.098,0.0
55932.0,STARLINK-5848,PAYLOAD,2024-02-10 08:02:19,14.98327866,0.0002728,70.0012,16.351,257.5979,102.4875,6.985e-05,7.41e-06,0.0,0 STARLINK-5848,1 55932U 23037U   24041.33494327  .00000741  00000-0  69850-4 0  9999,2 55932  70.0012  16.3510 0002728 257.5979 102.4875 14.98327866 51226,6950.199,96.107,573.961,570.168,0.0
55932.0,STARLINK-5848,PAYLOAD,2024-02-10 22:27:31,14.98331584,0.0002802,70.0016,14.8364,263.6474,96.4366,7.7637e-05,8.34e-06,0.0,0 STARLINK-5848,1 55932U 23037U   24041.93578084  .00000834  00000-0  77637-4 0  9993,2 55932  70.0016  14.8364 0002802 263.6474  96.4366 14.98331584 50971,6950.188,96.107,574.0,570.106,0.0
55932.0,STARLINK-5848,PAYLOAD,2024-02-11 08:04:19,14.98334019,0.0002913,70.0014,13.8265,264.2016,95.8811,8.6885e-05,9.44e-06,0.0,0 STARLINK-5848,1 55932U 23037U   24042.33633842  .00000944  00000-0  86885-4 0  9999,2 55932  70.0014  13.8265 0002913 264.2016  95.8811 14.98334019 51379,6950.18,96.107,574.07,570.021,0.0
55932.0,STARLINK-5848,PAYLOAD,2024-02-11 22:29:32,14.98334957,0.0002796,70.0016,12.3123,262.8355,97.2486,2.518e-05,2.08e-06,0.0,0 STARLINK-5848,1 55932U 23037U   24042.93717872  .00000208  00000-0  25180-4 0  9995,2 55932  70.0016  12.3123 0002796 262.8355  97.2486 14.98334957 51125,6950.178,96.107,573.986,570.099,0.0
55932.0,STARLINK-5848,PAYLOAD,2024-02-12 08:06:20,14.98339113,0.0002743,70.0015,11.3024,261.2096,98.8753,7.0756e-05,7.52e-06,0.0,0 STARLINK-5848,1 55932U 23037U   24043.33773308  .00000752  00000-0  70756-4 0  9999,2 55932  70.0015  11.3024 0002743 261.2096  98.8753 14.98339113 51527,6950.165,96.106,573.936,570.123,0.0
55932.0,STARLINK-5848,PAYLOAD,2024-02-12 22:31:33,14.98328043,0.0002404,70.0022,9.7876,257.7261,102.3629,-5.8031e-05,-7.85e-06,0.0,0 STARLINK-5848,1 55932U 23037U   24043.93858236 -.00000785  00000-0 -58031-4 0  9999,2 55932  70.0022   9.7876 0002404 257.7261 102.3629 14.98328043 51274,6950.199,96.107,573.735,570.393,0.0
55932.0,STARLINK-5848,PAYLOAD,2024-02-13 03:19:57,14.98326835,0.0002436,70.0025,9.2824,259.6532,100.4353,-4.0312e-05,-5.74e-06,0.0,0 STARLINK-5848,1 55932U 23037U   24044.13886274 -.00000574  00000-0 -40312-4 0  9994,2 55932  70.0025   9.2824 0002436 259.6532 100.4353 14.98326835 51643,6950.203,96.107,573.761,570.375,0.0
55932.0,STARLINK-5848,PAYLOAD,2024-02-13 14:32:54,14.98330265,0.0002512,70.0019,8.1041,268.8549,91.2323,-0.00012108,-1.537e-05,0.0,0 STARLINK-5848,1 55932U 23037U   24044.60618355 -.00001537  00000-0 -12108-3 0  9990,2 55932  70.0019   8.1041 0002512 268.8549  91.2323 14.98330265 51376,6950.192,96.107,573.803,570.311,0.0
55932.0,STARLINK-5848,PAYLOAD,2024-02-13 22:33:34,14.98328197,0.0002824,70.0014,7.262,266.3368,93.7468,-5.0999e-05,-7.01e-06,0.0,0 STARLINK-5848,1 55932U 23037U   24044.93998201 -.00000701  00000-0 -50999-4 0  9990,2 55932  70.0014   7.2620 0002824 266.3368  93.7468 14.98328197 51426,6950.198,96.107,574.026,570.101,0.0
55932.0,STARLINK-5848,PAYLOAD,2024-02-14 04:58:06,14.98332194,0.0002966,70.0009,6.589,268.3051,91.7768,1.3165e-05,6.4e-07,0.0,0 STARLINK-5848,1 55932U 23037U   24045.20701817  .00000064  00000-0  13165-4 0  9990,2 55932  70.0009   6.5890 0002966 268.3051  91.7768 14.98332194 51804,6950.186,96.107,574.113,569.99,0.0
55932.0,STARLINK-5848,PAYLOAD,2024-02-14 14:34:55,14.98330786,0.0001864,70.0031,5.5772,289.5881,70.5077,-9.3031e-05,-1.203e-05,0.0,0 STARLINK-5848,1 55932U 23037U   24045.60758470 -.00001203  00000-0 -93031-4 0  9999,2 55932  70.0031   5.5772 0001864 289.5881  70.5077 14.98330786 51521,6950.19,96.107,573.351,570.76,0.0
55932.0,STARLINK-5848,PAYLOAD,2024-02-14 22:35:35,14.98321049,0.00025,70.0015,4.7369,267.4518,92.6355,-3.1327e-06,-1.3e-06,0.0,0 STARLINK-5848,1 55932U 23037U   24045.94138603 -.00000130  00000-0 -31327-5 0  9995,2 55932  70.0015   4.7369 0002500 267.4518  92.6355 14.98321049 51577,6950.221,96.108,573.823,570.348,0.0
55932.0,STARLINK-5848,PAYLOAD,2024-02-15 03:23:59,14.98322517,0.0003064,70.0007,4.2331,274.2975,85.7834,2.3019e-05,1.82e-06,0.0,0 STARLINK-5848,1 55932U 23037U   24046.14166504  .00000182  00000-0  23019-4 0  9992,2 55932  70.0007   4.2331 0003064 274.2975  85.7834 14.98322517 51948,6950.216,96.107,574.211,569.951,0.0
55932.0,STARLINK-5848,PAYLOAD,2024-02-15 06:36:15,14.9832157,0.0002925,70.0005,3.8962,272.2493,87.8331,6.1508e-05,6.41e-06,0.0,0 STARLINK-5848,1 55932U 23037U   24046.27518513  .00000641  00000-0  61508-4 0  9992,2 55932  70.0005   3.8962 0002925 272.2493  87.8331 14.98321570 51627,6950.219,96.108,574.117,570.051,0.0
55932.0,STARLINK-5848,PAYLOAD,2024-02-15 22:37:38,14.98305332,0.0002861,70.0011,2.213,269.7899,90.2932,-0.00020596,-2.548e-05,0.0,0 STARLINK-5848,1 55932U 23037U   24046.94280958 -.00002548  00000-0 -20596-3 0  9996,2 55932  70.0011   2.2130 0002861 269.7899  90.2932 14.98305332 51728,6950.269,96.109,574.123,570.146,0.0
55932.0,STARLINK-5848,PAYLOAD,2024-02-16 03:26:01,14.98324286,0.0003158,69.9999,1.7072,269.9748,90.1049,-4.8659e-05,-6.73e-06,0.0,0 STARLINK-5848,1 55932U 23037U   24047.14307800 -.00000673  00000-0 -48659-4 0  9993,2 55932  69.9999   1.7072 0003158 269.9748  90.1049 14.98324286 52092,6950.211,96.107,574.27,569.881,0.0
55932.0,STARLINK-5848,PAYLOAD,2024-02-16 06:38:17,14.9832807,0.0002927,70.0006,1.3692,268.3553,91.7271,-1.4649e-06,-1.1e-06,0.0,0 STARLINK-5848,1 55932U 23037U   24047.27659209 -.00000110  00000-0 -14649-5 0  9999,2 55932  70.0006   1.3692 0002927 268.3553  91.7271 14.98328070 52110,6950.199,96.107,574.098,570.03,0.0
